satname,norad_id,inclination_deg,eccentricity,mean_motion_rev_per_day,perigee_km,apogee_km,l1,l2
STARLINK-1452,45669,53.0354,0.0004503,15.3892385,446.21596291020796,452.36474398472274,1 45669U 20035N   26033.42351570  .00110599  00000+0  27972-2 0  9994,2 45669  53.0354 189.0104 0004503 242.0199 118.0348 15.38923850313921
STARLINK-1453,45670,53.0512,0.0004598,15.45005178,428.2318496224134,434.49386569151557,1 45670U 20035P   26033.40849744  .00117366  00000+0  24208-2 0  9997,2 45670  53.0512 182.3158 0004598 221.8539 138.2116 15.45005178313908
STARLINK-1454,45671,53.0533,3.74e-05,15.43375141,435.90173231280824,436.4114414731075,1 45671U 20035Q   26032.90384490  .00088989  00000+0  19495-2 0  9994,2 45671  53.0533 223.8803 0000374 133.4523 226.6513 15.43375141313371
STARLINK-1456,45673,53.0503,0.0005459,15.42458974,435.1332264278926,442.57601788096144,1 45673U 20035S   26033.53450598  .00059166  00000+0  13444-2 0  9992,2 45673  53.0503 214.2094 0005459 159.9874 200.1346 15.42458974313586
STARLINK-1457,45674,53.0488,0.0003275,15.67662341,363.3841723843598,367.8013153665979,1 45674U 20035T   26033.66670139  .00153642  00000+0  13588-2 0  9995,2 45674  53.0488 196.5297 0003275 302.8600  21.3330 15.67662341  5931
STARLINK-1458,45675,53.054,7.13e-05,15.37642492,452.59574426589734,453.56987621083863,1 45675U 20035U   26033.66670139 -.00005469  00000+0 -13555-3 0  9996,2 45675  53.0540 221.1767 0000713  93.3687  17.5353 15.37642492  5797
STARLINK-1460,45676,53.0554,0.0001321,15.06400693,546.2945957299726,548.1242722578345,1 45676U 20035V   26032.94028278  .00001205  00000+0  99788-4 0  9993,2 45676  53.0554 227.1034 0001321  91.1812 268.9329 15.06400693313303
STARLINK-1392,45677,53.055,0.0001294,15.06406685,546.2949319996751,548.0872069040497,1 45677U 20035W   26033.54845431  .00000432  00000+0  47880-4 0  9996,2 45677  53.0550 224.3726 0001294  92.6267 267.4870 15.06406685313432
STARLINK-1394,45679,53.0525,0.0006023,15.41824196,436.6185563039053,444.8325581403351,1 45679U 20035Y   26032.85655387  .00016344  00000+0  38834-3 0  9997,2 45679  53.0525 207.3565 0006023 160.6621 199.4613 15.41824196313612
STARLINK-1402,45685,53.0495,0.0007093,15.39307882,443.31286359467504,452.99664107453737,1 45685U 20035AE  26033.66670139  .00069342  00000+0  17442-2 0  9993,2 45685  53.0495 189.4684 0007093 155.8654 252.7964 15.39307882  5825
STARLINK-1404,45686,53.1561,0.0001593,15.2934145,476.68759660069827,478.87189167537963,1 45686U 20035AF  26033.00002315  .00041333  00000+0  14374-2 0  9998,2 45686  53.1561 215.4130 0001593  81.1560 124.3703 15.29341450  5747
STARLINK-1413,45689,53.1573,0.0001313,15.29388889,476.73780769282075,478.53813420019105,1 45689U 20035AJ  26033.23577174  .00010096  00000+0  36135-3 0  9998,2 45689  53.1573 214.2503 0001313  82.6256 277.4894 15.29388889313461
STARLINK-1417,45693,53.0498,0.0007348,15.10281266,530.2614951296155,540.4215431613529,1 45693U 20035AN  26032.89056856  .00020283  00000+0  12383-2 0  9990,2 45693  53.0498 216.2897 0007348 132.2637 227.8977 15.10281266313482
STARLINK-1420,45695,53.0542,0.0001053,15.46665354,425.772623092962,427.20567736019984,1 45695U 20035AQ  26033.66670139  .00021763  00000+0  43640-3 0  9999,2 45695  53.0542 190.3048 0001053  58.0736  23.7027 15.46665354  5745
STARLINK-1422,45696,53.1528,0.0001729,15.29131411,477.22204491997127,479.59303802241175,1 45696U 20035AR  26033.66670139  .00064176  00000+0  22324-2 0  9990,2 45696  53.1528 212.2137 0001729  94.8435 101.5699 15.29131411  5651
STARLINK-1351,45697,53.0556,8.47e-05,15.43468585,435.3044047584108,436.4586995011414,1 45697U 20035AS  26033.66670139  .00091050  00000+0  19877-2 0  9991,2 45697  53.0556 189.4708 0000847  30.1883 204.1214 15.43468585  5813
STARLINK-1398,45699,53.0432,0.0004046,15.76553326,337.4963963692162,342.93288651747116,1 45699U 20035AU  26033.66670139  .00182208  00000+0  11016-2 0  9996,2 45699  53.0432 116.3049 0004046 319.5052 143.7694 15.76553326  5973
STARLINK-1400,45700,53.0539,0.0001456,15.44080896,433.08815804994447,435.07187564524975,1 45700U 20035AV  26033.66670139  .00090067  00000+0  19263-2 0  9992,2 45700  53.0539 190.3111 0001456 345.8027 310.1261 15.44080896  5749
STARLINK-1403,45701,53.0568,0.0001264,15.06394146,546.3541333376925,548.1048659888083,1 45701U 20035AW  26033.44432788  .00000715  00000+0  66920-4 0  9990,2 45701  53.0568 194.8422 0001264  82.9740 277.1393 15.06394146313838
STARLINK-1407,45703,53.0372,0.0010613,15.53870061,398.2398033949912,412.6386222643432,1 45703U 20035AY  26033.64208875  .00105549  00000+0  15941-2 0  9998,2 45703  53.0372 125.6658 0010613 340.6780  19.3826 15.53870061314837
STARLINK-1411,45706,53.0469,0.0002562,15.5572747,398.3022192963972,401.77535657013414,1 45706U 20035BB  26033.49175231  .00065892  00000+0  93894-3 0  9993,2 45706  53.0469 152.5668 0002562 348.4175  11.6776 15.55727470314437
STARLINK-1423,45710,53.0542,9.59e-05,15.45893102,428.1023511946041,429.4079131055514,1 45710U 20035BF  26033.66670139  .00095511  00000+0  19187-2 0  9997,2 45710  53.0542 189.8851 0000959  29.6311 185.6333 15.45893102  5746
STARLINK-1433,45711,53.0537,0.0001498,15.47861164,421.965252702601,424.00286857236824,1 45711U 20035BG  26033.66670139  .00094923  00000+0  17818-2 0  9993,2 45711  53.0537 189.4504 0001498 347.0606 189.0114 15.47861164  5745
STARLINK-1434,45712,53.0507,0.0001328,15.22825212,496.4106132810157,498.23673563615193,1 45712U 20035BH  26033.43793559  .00060911  00000+0  25632-2 0  9994,2 45712  53.0507 182.8575 0001328  89.9236 270.1912 15.22825212314019
STARLINK-1465,45731,53.0543,0.0001281,15.43811428,433.9999496288965,435.7454427130542,1 45731U 20038B   26033.66670139 -.00009064  00000+0 -18812-3 0  9998,2 45731  53.0543  30.4637 0001281 100.3850  99.3954 15.43811428  5791
STARLINK-1471,45735,53.05,0.0003261,15.45761982,426.9202055816031,431.35991167924294,1 45735U 20038F   26033.06603758  .00021168  00000+0  43803-3 0  9994,2 45735  53.0500 312.3924 0003261 111.2295 248.9060 15.45761982312010
STARLINK-1474,45738,53.0232,0.0005217,15.96600982,280.3815819447982,287.3327066349493,1 45738U 20038J   26033.66670139  .00340403  57775-4  79005-3 0  9995,2 45738  53.0232 242.6697 0005217 217.1641  17.4148 15.96600982  6015
STARLINK-1480,45741,53.0536,0.0009256,15.42242135,433.183186940254,445.803984680706,1 45741U 20038M   26033.35489642  .00109735  00000+0  24850-2 0  9994,2 45741  53.0536  25.6157 0009256  53.8136 306.3724 15.42242135311019
STARLINK-1500,45744,53.0399,0.0004481,15.32792006,464.4191909204674,470.55423889376743,1 45744U 20038Q   26033.62033084  .00033796  00000+0  10589-2 0  9999,2 45744  53.0399 356.9988 0004481 105.7770 254.3725 15.32792006311432
STARLINK-1504,45746,53.0253,0.0004557,15.50705569,411.5693305776231,417.7602901475875,1 45746U 20038S   26033.20231457  .00032983  00000+0  56964-3 0  9994,2 45746  53.0253 313.0647 0004557  94.5765 265.5764 15.50705569312001
STARLINK-1506,45747,53.0759,0.0004866,15.25216028,486.7947177604865,493.4789218419164,1 45747U 20038T   26033.21895679  .00014848  00000+0  59561-3 0  9994,2 45747  53.0759   6.2936 0004866 117.4509 242.6983 15.25216028311275
STARLINK-1464,45751,53.055,0.0002614,15.393984,446.10283229912056,449.6714777273619,1 45751U 20038X   26033.37385615  .00105541  00000+0  26309-2 0  9994,2 45751  53.0550  12.0493 0002614  89.1740 270.9563 15.39398400311204
STARLINK-1477,45754,53.053,5.34e-05,15.12146625,529.285905184609,530.0236573468483,1 45754U 20038AA  26033.23302120  .00038559  00000+0  22162-2 0  9999,2 45754  53.0530  13.8463 0000534 355.6579   4.4408 15.12146625311165
STARLINK-1478,45755,53.0557,0.0005638,15.47854737,419.16840435891754,426.83736969552865,1 45755U 20038AB  26033.66670139  .00137632  00000+0  25652-2 0  9994,2 45755  53.0557   6.3253 0005638  86.6499 331.3504 15.47854737  5731
STARLINK-1484,45756,53.0059,0.0003376,15.8324047,319.0220085879919,323.545457466932,1 45756U 20038AC  26033.66670139  .00154984  00000+0  69365-3 0  9994,2 45756  53.0059 235.4729 0003376 191.3854 176.2205 15.83240470  5993
STARLINK-1493,45759,53.0559,0.0001367,15.39325146,447.1705658407045,449.036860051624,1 45759U 20038AF  26033.66670139  .01526034  00000+0  35226-1 0  9994,2 45759  53.0559  11.3417 0001367 108.9732 331.1783 15.39325146  5340
STARLINK-1494,45760,53.0523,0.0002234,15.6724904,365.27147538017834,368.28510353150705,1 45760U 20038AG  26033.10989261  .00065141  00000+0  59523-3 0  9998,2 45760  53.0523 327.6108 0002234 131.8194 228.3013 15.67249040311807
STARLINK-1502,45764,53.0538,0.0001594,15.30457773,473.35321208242567,475.5378153878046,1 45764U 20038AL  26033.66670139  .00876572  00000+0  27312-1 0  9991,2 45764  53.0538  12.1389 0001594 104.5575 110.0004 15.30457773  5803
STARLINK-1470,45772,53.05,0.0001993,15.2500463,489.4025573246854,492.1405042650604,1 45772U 20038AU  26033.24938291  .00023180  00000+0  92729-3 0  9995,2 45772  53.0500 338.3871 0001993 106.0207 254.1010 15.25004630311667
STARLINK-1482,45773,53.1147,0.0001659,15.20193686,504.1139270553749,506.3978368136022,1 45773U 20038AV  26033.66670139  .01222443  00000+0  51039-1 0  9997,2 45773  53.1147 353.4154 0001659  75.9684  45.7852 15.20193686  5595
STARLINK-1496,45780,53.056,0.000872,15.42131367,433.87478724730136,445.7653043351602,1 45780U 20038BC  26033.66670139  .00135612  00000+0  30704-2 0  9992,2 45780  53.0560 344.6042 0008720  83.7963  32.7917 15.42131367  5884
STARLINK-1497,45781,53.0229,0.0005834,16.03071633,262.0419035788,269.7941870056475,1 45781U 20038BD  26033.65072423  .00725433  26309-3  11594-2 0  9990,2 45781  53.0229 254.7967 0005834 198.4253 161.6567 16.03071633312862
STARLINK-1513,45786,53.1089,0.0001684,15.19083778,507.4486146249719,509.76807045633814,1 45786U 20038BJ  26033.66670139  .01424723  00000+0  61472-1 0  9998,2 45786  53.1089 353.5353 0001684  70.3884   6.0080 15.19083778  5596
